SCD 1                   
1 22490U 93009B   26195.30470017  .00000294  00000+0  29742-4 0  9995
2 22490  24.9704  40.1394 0042072  65.1406  95.4160 14.46128449765043
TECHSAT 1B (GO-32)      
1 25397U 98043D   26195.52935320  .00000006  00000+0  22945-4 0  9993
2 25397  99.0085 188.9795 0002171 115.5342 244.6061 14.24433285455225
SCD 2                   
1 25504U 98060A   26195.49751817  .00000275  00000+0  26177-4 0  9994
2 25504  24.9946 263.7395 0016949  52.2644 330.3985 14.45534668464280
DLR-TUBSAT              
1 25757U 99029B   26195.50502444  .00000008  00000+0  13862-4 0  9993
2 25757  98.6710 191.9098 0012959 266.9641  93.0070 14.52433211437218
TERRA                   
1 25994U 99068A   26195.62614433  .00000188  00000+0  47265-4 0  9997
2 25994  97.9442 244.0824 0003387 123.7802 352.1206 14.61123443413617
MAROC-TUBSAT            
1 27004U 01056D   26195.45499168 -.00000034  00000+0  14230-4 0  9995
2 27004  99.8097  12.8303 0020603  73.9164 340.9563 13.70263530229929
AQUA                    
1 27424U 02022A   26195.50499725  .00000358  00000+0  80864-4 0  9994
2 27424  98.4295 165.3370 0000927 111.8770   0.7592 14.62196472287266
SHIYAN-1 (SY-1)         
1 28220U 04012A   26195.18725102  .00007997  00000+0  24237-3 0  9992
2 28220  97.8691 275.0221 0004060 279.7096  80.3686 15.34436267215230
AURA                    
1 28376U 04026A   26195.57968634  .00000349  00000+0  80403-4 0  9993
2 28376  98.3430 152.2626 0001309  93.0374 267.0976 14.61367246170216
IRS-P5 (CARTOSAT-1)     
1 28649U 05017A   26195.59214298  .00000657  00000+0  71531-4 0  9993
2 28649  97.5307 217.4134 0001422  55.5319 304.6035 14.91116221147901
SINAH 1                 
1 28893U 05043D   26195.59473178  .00000129  00000+0  33865-4 0  9999
2 28893  98.2892 330.0830 0014358 185.3892 174.7158 14.64175240104534
RESURS-DK 1             
1 29228U 06021A   26195.59943745  .00000920  00000+0  57623-4 0  9998
2 29228  69.9308 268.5885 0007074 271.7724  88.2632 15.13317802106726
ARIRANG-2 (KOMPSAT-2)   
1 29268U 06031A   26195.62488237 -.00000072  00000+0 -49702-5 0  9997
2 29268  97.8307  18.7448 0014302 352.7119  98.2049 14.64674902 65492
LAPAN-TUBSAT            
1 29709U 07001A   26195.59334473 -.00000321  00000+0 -30109-4 0  9990
2 29709  98.1347 195.4366 0013575  95.2117 265.0647 14.85974449 55220
HAIYANG-1B              
1 31113U 07010A   26195.55346246  .00000027  00000+0  26063-4 0  9994
2 31113  98.3515 176.3397 0014621 117.5345 242.7326 14.31033204  4559
COSMO-SKYMED 1          
1 31598U 07023A   26195.60388949  .00001372  00000+0  12381-3 0  9998
2 31598  97.8845  27.6916 0001372 103.7326 256.4048 14.97217563 33892
TERRASAR-X              
1 31698U 07026A   26188.47915537  .00000240  00000+0  14624-4 0  9994
2 31698  97.4461 195.8972 0001878  86.9540 273.1909 15.19153986 56300
WORLDVIEW-1 (WV-1)      
1 32060U 07041A   26195.59871862  .00003333  00000+0  13828-3 0  9998
2 32060  97.3904 314.9574 0001471 208.9345 151.1811 15.24554602 47050
YAOGAN-3                
1 32289U 07055A   26195.57860211  .00001999  00000+0  20844-3 0  9992
2 32289  97.8147 225.1857 0001682  79.6192 280.5216 14.90883879  9957
COSMO-SKYMED 2          
1 32376U 07059A   26195.57031830  .00000176  00000+0  28708-4 0  9994
2 32376  97.8892  18.7720 0001437  94.0024 266.1354 14.82150204  6061
RADARSAT-2              
1 32382U 07061A   26195.60633522 -.00000011  00000+0  12764-4 0  9998
2 32382  98.5778 202.1471 0001314  83.6295 276.5037 14.29983122969873
CARTOSAT-2A             
1 32783U 08021A   26195.64474144  .00000926  00000+0  13109-3 0  9994
2 32783  97.7623 243.4144 0012578  28.9330 331.2577 14.79278593982865
HUANJING 1A (HJ-1A)     
1 33320U 08041A   26195.60873332  .00000529  00000+0  69375-4 0  9998
2 33320  97.6690 180.3894 0020424  51.3437 308.9602 14.84048506962474
HUANJING 1B (HJ-1B)     
1 33321U 08041B   26195.59040257  .00000663  00000+0  86176-4 0  9996
2 33321  97.6525 183.4600 0037944  93.1225 267.4332 14.83364405962472
GEOEYE 1                
1 33331U 08042A   26195.54642761  .00000181  00000+0  43071-4 0  9993
2 33331  98.1328 269.1499 0003990 349.0559  11.0556 14.64649043954155
THEOS                   
1 33396U 08049A   26195.58750148  .00000104  00000+0  68518-4 0  9992
2 33396  98.5563 251.9795 0001135  86.3465 273.7842 14.20136601921854
COSMO-SKYMED 3          
1 33412U 08054A   26195.63153497  .00001841  00000+0  12667-3 0  9999
2 33412  97.8250  54.6564 0015749 168.4483 191.7109 15.07109988961075
YAOGAN-4                
1 33446U 08061A   26195.55652855  .00000447  00000+0  61264-4 0  9996
2 33446  97.9303 128.8656 0013857 347.7981  12.2895 14.83250556949729
GOSAT (IBUKI)           
1 33492U 09002A   26195.54759595  .00000300  00000+0  61385-4 0  9993
2 33492  98.0913 306.2888 0001154  87.7478 272.3859 14.67539207935478
DEIMOS-1                
1 35681U 09041A   26195.58822387  .00000097  00000+0  21391-4 0  9998
2 35681  97.7424 351.6323 0002775  93.4550 266.6978 14.75262908910927
