OBJECT_NAME,OBJECT_ID,EPOCH,MEAN_MOTION,ECCENTRICITY,INCLINATION,RA_OF_ASC_NODE,ARG_OF_PERICENTER,MEAN_ANOMALY,EPHEMERIS_TYPE,CLASSIFICATION_TYPE,NORAD_CAT_ID,ELEMENT_SET_NO,REV_AT_EPOCH,BSTAR,MEAN_MOTION_DOT,MEAN_MOTION_DDOT
SCD 1,1993-009B,2026-07-14T07:18:46.094688,14.46128449,.00420725,24.9704,40.1394,65.1406,95.4160,0,U,22490,999,76504,.29741887E-4,.294E-5,0
TECHSAT 1B (GO-32),1998-043D,2026-07-14T12:42:16.116480,14.24433285,.00021716,99.0085,188.9795,115.5342,244.6061,0,U,25397,999,45522,.22944989E-4,.6E-7,0
SCD 2,1998-060A,2026-07-14T11:56:25.569888,14.45534668,.00169494,24.9946,263.7395,52.2644,330.3985,0,U,25504,999,46428,.26177223E-4,.275E-5,0
DLR-TUBSAT,1999-029B,2026-07-14T12:07:14.111616,14.52433211,.00129598,98.6710,191.9098,266.9641,93.0070,0,U,25757,999,43721,.1386213E-4,.8E-7,0
TERRA,1999-068A,2026-07-14T15:01:38.870112,14.61123443,.00033877,97.9442,244.0824,123.7802,352.1206,0,U,25994,999,41361,.47265479E-4,.188E-5,0
MAROC-TUBSAT,2001-056D,2026-07-14T10:55:11.281152,13.70263530,.0020603,99.8097,12.8303,73.9164,340.9563,0,U,27004,999,22992,.142297E-4,-.34E-6,0
AQUA,2002-022A,2026-07-14T12:07:11.762400,14.62196472,.0000927,98.4295,165.3370,111.8770,0.7592,0,U,27424,999,28726,.80863616E-4,.358E-5,0
SHIYAN-1 (SY-1),2004-012A,2026-07-14T04:29:38.488128,15.34436267,.00040606,97.8691,275.0221,279.7096,80.3686,0,U,28220,999,21523,.24237077E-3,.7997E-4,0
AURA,2004-026A,2026-07-14T13:54:44.899776,14.61367246,.00013091,98.3430,152.2626,93.0374,267.0976,0,U,28376,999,17021,.80402971E-4,.349E-5,0
IRS-P5 (CARTOSAT-1),2005-017A,2026-07-14T14:12:41.153472,14.91116221,.00014226,97.5307,217.4134,55.5319,304.6035,0,U,28649,999,14790,.71531073E-4,.657E-5,0
SINAH 1,2005-043D,2026-07-14T14:16:24.825792,14.64175240,.00143583,98.2892,330.0830,185.3892,174.7158,0,U,28893,999,10453,.33864744E-4,.129E-5,0
RESURS-DK 1,2006-021A,2026-07-14T14:23:11.395680,15.13317802,.00070749,69.9308,268.5885,271.7724,88.2632,0,U,29228,999,10672,.57622555E-4,.92E-5,0
ARIRANG-2 (KOMPSAT-2),2006-031A,2026-07-14T14:59:49.836768,14.64674902,.00143027,97.8307,18.7448,352.7119,98.2049,0,U,29268,999,6549,-.4970236E-5,-.72E-6,0
LAPAN-TUBSAT,2007-001A,2026-07-14T14:14:24.984672,14.85974449,.0013575,98.1347,195.4366,95.2117,265.0647,0,U,29709,999,5522,-.30109325E-4,-.321E-5,0
HAIYANG-1B,2007-010A,2026-07-14T13:16:59.156544,14.31033204,.00146218,98.3515,176.3397,117.5345,242.7326,0,U,31113,999,455,.26062904E-4,.27E-6,0
COSMO-SKYMED 1,2007-023A,2026-07-14T14:29:36.051936,14.97217563,.00013722,97.8845,27.6916,103.7326,256.4048,0,U,31598,999,3389,.12381287E-3,.1372E-4,0
TERRASAR-X,2007-026A,2026-07-07T11:29:59.023968,15.19153986,.0001878,97.4461,195.8972,86.9540,273.1909,0,U,31698,999,5630,.14624E-4,.24E-5,0
WORLDVIEW-1 (WV-1),2007-041A,2026-07-14T14:22:09.288768,15.24554602,.00014718,97.3904,314.9574,208.9345,151.1811,0,U,32060,999,4705,.1382761E-3,.3333E-4,0
YAOGAN-3,2007-055A,2026-07-14T13:53:11.222304,14.90883879,.00016824,97.8147,225.1857,79.6192,280.5216,0,U,32289,999,995,.20843938E-3,.1999E-4,0
COSMO-SKYMED 2,2007-059A,2026-07-14T13:41:15.501120,14.82150204,.0001437,97.8892,18.7720,94.0024,266.1354,0,U,32376,999,606,.28707595E-4,.176E-5,0
RADARSAT-2,2007-061A,2026-07-14T14:33:07.363008,14.29983122,.00013144,98.5778,202.1471,83.6295,276.5037,0,U,32382,999,96987,.12763589E-4,-.11E-6,0
CARTOSAT-2A,2008-021A,2026-07-14T15:28:25.660416,14.79278593,.00125784,97.7623,243.4144,28.9330,331.2577,0,U,32783,999,98286,.13109053E-3,.926E-5,0
HUANJING 1A (HJ-1A),2008-041A,2026-07-14T14:36:34.558848,14.84048506,.00204244,97.6690,180.3894,51.3437,308.9602,0,U,33320,999,96247,.69375442E-4,.529E-5,0
HUANJING 1B (HJ-1B),2008-041B,2026-07-14T14:10:10.782048,14.83364405,.00379445,97.6525,183.4600,93.1225,267.4332,0,U,33321,999,96247,.86176225E-4,.663E-5,0
GEOEYE 1,2008-042A,2026-07-14T13:06:51.345504,14.64649043,.00039902,98.1328,269.1499,349.0559,11.0556,0,U,33331,999,95415,.43071135E-4,.181E-5,0
THEOS,2008-049A,2026-07-14T14:06:00.127872,14.20136601,.00011359,98.5563,251.9795,86.3465,273.7842,0,U,33396,999,92185,.68518151E-4,.104E-5,0
COSMO-SKYMED 3,2008-054A,2026-07-14T15:09:24.621408,15.07109988,.00157496,97.8250,54.6564,168.4483,191.7109,0,U,33412,999,96107,.12667433E-3,.1841E-4,0
YAOGAN-4,2008-061A,2026-07-14T13:21:24.066720,14.83250556,.00138572,97.9303,128.8656,347.7981,12.2895,0,U,33446,999,94972,.61264369E-4,.447E-5,0
GOSAT (IBUKI),2009-002A,2026-07-14T13:08:32.290080,14.67539207,.0001154,98.0913,306.2888,87.7478,272.3859,0,U,33492,999,93547,.61384903E-4,.3E-5,0
DEIMOS-1,2009-041A,2026-07-14T14:07:02.542368,14.75262908,.00027758,97.7424,351.6323,93.4550,266.6978,0,U,35681,999,91092,.21390667E-4,.97E-6,0
